[{"OBJECT_NAME":"JILIN-1 GAOFEN 3B","OBJECT_ID":"2020-065A","EPOCH":"2026-03-09T16:59:49.888320","MEAN_MOTION":15.79810651,"ECCENTRICITY":0.00034182,"INCLINATION":97.2369,"RA_OF_ASC_NODE":126.2587,"ARG_OF_PERICENTER":147.1164,"MEAN_ANOMALY":213.0317,"EPHEMERIS_TYPE":0,"CLASSIFICATION_TYPE":"U","NORAD_CAT_ID":46454,"ELEMENT_SET_NO":999,"REV_AT_EPOCH":30472,"BSTAR":0.0009879268,"MEAN_MOTION_DOT":0.00184567,"MEAN_MOTION_DDOT":0},{"OBJECT_NAME":"STARLINK-35998","OBJECT_ID":"2026-041R","EPOCH":"2026-03-09T22:00:01.999584","MEAN_MOTION":15.92859264,"ECCENTRICITY":5.975e-5,"INCLINATION":53.1593,"RA_OF_ASC_NODE":61.0446,"ARG_OF_PERICENTER":98.606,"MEAN_ANOMALY":255.8169,"EPHEMERIS_TYPE":0,"CLASSIFICATION_TYPE":"U","NORAD_CAT_ID":68055,"ELEMENT_SET_NO":999,"REV_AT_EPOCH":237,"BSTAR":-0.0044591902,"MEAN_MOTION_DOT":-0.01577764,"MEAN_MOTION_DDOT":0.00070788799}]
